STARLINK-32462          
1 62129U 24222R   26068.53414897  .00020418  00000+0  74956-3 0  9993
2 62129  43.0035 133.7368 0002113 270.1900  89.8710 15.27574971 72767
FLOCK 4G-2              
1 62661U 25009BE  26068.66207492  .00013752  00000+0  51068-3 0  9995
2 62661  97.4044 151.2221 0003181 329.2677  30.8376 15.27675260121321
